{
  "type": "FeatureCollection",
  "features": [
    {
      "type": "Feature",
      "geometry": {
        "type": "Point",
        "coordinates": [8.59434,48.10529]
      },
      "properties": {
        "name": "Deißlingen",
        "label": "Deißlingen",
        "popup_hz": "Ökologie/Feuchthabitate",
        "popup_massnahmen": [
          [
            "https://www.fva-bw.de/fileadmin/user_upload/Abteilungen/Boden_und_Umwelt/Wasserrueckhalt_Wald/PDF404.pdf",
            "Schaffung und Erhalt von Stillgewässern"
          ],
          [
            "https://www.fva-bw.de/fileadmin/publikationen/faltblaetter/FOR_25_008_Steckbrief_Furten_Okt25.pdf",
            "Ersetzen von Dolen durch Furten"
          ]
        ],
        "popup_img": "https://www.fva-bw.de/fileadmin/user_upload/Abteilungen/Boden_und_Umwelt/Wasserrueckhalt_Wald/bilder/Deisslingen.jpg"
      }
    },
    {
      "type": "Feature",
      "geometry": {
        "type": "Point",
        "coordinates": [7.83251,48.21475]
      },
      "properties": {
        "name": "Herbolzheim",
        "label": "Herbolzheim",
        "popup_hz": "Hochwasserschutz",
        "popup_massnahmen": [
          [
            "https://www.fva-bw.de/fileadmin/publikationen/faltblaetter/FOR_25_008_Steckbrief_Versickerungsgraben_Okt25.pdf",
            "Versickerungsgräben"
          ],
          [
            "https://www.fva-bw.de/fileadmin/user_upload/Abteilungen/Boden_und_Umwelt/Wasserrueckhalt_Wald/PDF404.pdf",
            "Optimale Gestaltung von Wegedurchlässen"
          ]
        ],
        "popup_img": "https://www.fva-bw.de/fileadmin/user_upload/Abteilungen/Boden_und_Umwelt/Wasserrueckhalt_Wald/bilder/HerbolzheimBleichtal.jpg"
      }
    },
    {
      "type": "Feature",
      "geometry": {
        "type": "Point",
        "coordinates": [9.76734,48.78016]
      },
      "properties": {
        "name": "Schwäbisch_Gmünd",
        "label": "Schwäbisch Gmünd",
        "popup_hz": "Ökologie/Feuchthabitate",
        "popup_massnahmen": [
          [
            "https://www.fva-bw.de/fileadmin/user_upload/Abteilungen/Boden_und_Umwelt/Wasserrueckhalt_Wald/PDF404.pdf",
            "Abflussregulierung von Stillgewässern"
          ],
          [
            "https://www.fva-bw.de/fileadmin/user_upload/Abteilungen/Boden_und_Umwelt/Wasserrueckhalt_Wald/PDF404.pdf",
            "Wasserableitung aus Rückegassen"
          ],
          [
            "https://www.fva-bw.de/fileadmin/user_upload/Abteilungen/Boden_und_Umwelt/Wasserrueckhalt_Wald/PDF404.pdf",
            "Schaffung und Erhalt von Stillgewässern"
          ],
          [
            "https://www.fva-bw.de/fileadmin/publikationen/faltblaetter/Steckbrief_Rigole_final.pdf",
            "Ersetzen von Dolen durch Rigolen"
          ]
        ],
        "popup_img": "https://www.fva-bw.de/fileadmin/user_upload/Abteilungen/Boden_und_Umwelt/Wasserrueckhalt_Wald/bilder/SchwaebischGmuendGruenhalde.jpg"
      }
    },
    {
      "type": "Feature",
      "geometry": {
        "type": "Point",
        "coordinates": [8.24382,48.75764]
      },
      "properties": {
        "name": "Baden_Baden_1",
        "label": "Baden-Baden",
        "popup_hz": "Hochwasserschutz",
        "popup_massnahmen": [
          [
            "https://www.fva-bw.de/fileadmin/user_upload/Abteilungen/Boden_und_Umwelt/Wasserrueckhalt_Wald/PDF404.pdf",
            "Abflussbremsende Strukturen in Fließgewässern"
          ]
        ],
        "popup_img": "https://www.fva-bw.de/fileadmin/user_upload/Abteilungen/Boden_und_Umwelt/Wasserrueckhalt_Wald/bilder/BadenBadenGrobbach.jpg"
      }
    },
    {
      "type": "Feature",
      "geometry": {
        "type": "Point",
        "coordinates": [7.75116,48.29141]
      },
      "properties": {
        "name": "Kappel_Grafenhausen",
        "label": "Kappel-Grafenhausen",
        "popup_hz": "Hochwasserschutz",
        "popup_massnahmen": [
          [
            "https://www.fva-bw.de/fileadmin/publikationen/faltblaetter/Steckbrief_Rigole_final.pdf",
            "Ersetzen von Dolen durch Rigolen"
          ],
          [
            "https://www.fva-bw.de/fileadmin/user_upload/Abteilungen/Boden_und_Umwelt/Wasserrueckhalt_Wald/PDF404.pdf",
            "Verzicht auf bergseitige Wegebegleitgräben"
          ],
          [
            "https://www.fva-bw.de/fileadmin/user_upload/Abteilungen/Boden_und_Umwelt/Wasserrueckhalt_Wald/PDF404.pdf",
            "Optimale Gestaltung von Wegedurchlässen"
          ]
        ],
        "popup_img": "https://www.fva-bw.de/fileadmin/user_upload/Abteilungen/Boden_und_Umwelt/Wasserrueckhalt_Wald/bilder/KappelGrafenhausen.jpg"
      }
    },
    {
      "type": "Feature",
      "geometry": {
        "type": "Point",
        "coordinates": [9.83938,48.05375]
      },
      "properties": {
        "name": "Ummendorf",
        "label": "Ummendorf",
        "popup_hz": "Hochwasserschutz",
        "popup_massnahmen": [
          [
            "https://www.fva-bw.de/fileadmin/publikationen/faltblaetter/FOR_25_008_Steckbrief_Versickerungsmulden.pdf",
            "Versickerungs-/Verdunstungsmulden"
          ]
        ],
        "popup_img": "https://www.fva-bw.de/fileadmin/user_upload/Abteilungen/Boden_und_Umwelt/Wasserrueckhalt_Wald/bilder/UmmendorfFischbach.jpg"
      }
    },
    {
      "type": "Feature",
      "geometry": {
        "type": "Point",
        "coordinates": [8.51121,49.50051]
      },
      "properties": {
        "name": "Mannheim_1",
        "label": "Mannheim",
        "popup_hz": "Ökologie/Feuchthabitate",
        "popup_massnahmen": [
          [
            "https://www.fva-bw.de/fileadmin/user_upload/Abteilungen/Boden_und_Umwelt/Wasserrueckhalt_Wald/PDF404.pdf",
            "Schaffung und Erhalt von Stillgewässern"
          ]
        ],
        "popup_img": "https://www.fva-bw.de/fileadmin/user_upload/Abteilungen/Boden_und_Umwelt/Wasserrueckhalt_Wald/bilder/Mannheim.jpg"
      }
    },
    {
      "type": "Feature",
      "geometry": {
        "type": "Point",
        "coordinates": [8.38882,47.70308]
      },
      "properties": {
        "name": "Eggingen",
        "label": "Eggingen",
        "popup_hz": "Bestandesvitalität",
        "popup_massnahmen": [
          [
            "https://www.fva-bw.de/fileadmin/publikationen/faltblaetter/Steckbrief_Rigole_final.pdf",
            "Ersetzen von Dolen durch Rigolen"
          ],
          [
            "https://www.fva-bw.de/fileadmin/user_upload/Abteilungen/Boden_und_Umwelt/Wasserrueckhalt_Wald/PDF404.pdf",
            "Hydrologisch optimierte Lage von Querabschlägen"
          ],
          [
            "https://www.fva-bw.de/fileadmin/user_upload/Abteilungen/Boden_und_Umwelt/Wasserrueckhalt_Wald/PDF404.pdf",
            "Optimale Gestaltung von Wegedurchlässen"
          ]
        ],
        "popup_img": "https://www.fva-bw.de/fileadmin/user_upload/Abteilungen/Boden_und_Umwelt/Wasserrueckhalt_Wald/bilder/EggingenEhrenbergweg.jpg"
      }
    },
    {
      "type": "Feature",
      "geometry": {
        "type": "Point",
        "coordinates": [8.6712,48.92331]
      },
      "properties": {
        "name": "Ispringen",
        "label": "Ispringen",
        "popup_hz": "Hochwasserschutz",
        "popup_massnahmen": [
          [
            "https://www.fva-bw.de/fileadmin/publikationen/faltblaetter/FOR_25_008_Steckbrief_Kleinrueckhalte_Okt25.pdf",
            "Retentionsflächen/Kleinrückhalte"
          ]
        ],
        "popup_img": "https://www.fva-bw.de/fileadmin/user_upload/Abteilungen/Boden_und_Umwelt/Wasserrueckhalt_Wald/bilder/Ispringen.jpg"
      }
    },
    {
      "type": "Feature",
      "geometry": {
        "type": "Point",
        "coordinates": [7.96422,47.90785]
      },
      "properties": {
        "name": "Oberried",
        "label": "Oberried",
        "popup_hz": "Erosionsschutz",
        "popup_massnahmen": [
          [
            "https://www.fva-bw.de/fileadmin/publikationen/faltblaetter/Steckbrief_Rigole_final.pdf",
            "Ersetzen von Dolen durch Rigolen"
          ],
          [
            "https://www.fva-bw.de/fileadmin/user_upload/Abteilungen/Boden_und_Umwelt/Wasserrueckhalt_Wald/PDF404.pdf",
            "Bremsende Strukturen in Wegeseitengräben"
          ],
          [
            "https://www.fva-bw.de/fileadmin/user_upload/Abteilungen/Boden_und_Umwelt/Wasserrueckhalt_Wald/PDF404.pdf",
            "Optimale Gestaltung von Wegedurchlässen"
          ],
          [
            "https://www.fva-bw.de/fileadmin/user_upload/Abteilungen/Boden_und_Umwelt/Wasserrueckhalt_Wald/PDF404.pdf",
            "Hydrologisch optimierte Lage von Querabschlägen"
          ]
        ],
        "popup_img": "https://www.fva-bw.de/fileadmin/user_upload/Abteilungen/Boden_und_Umwelt/Wasserrueckhalt_Wald/bilder/OberriedZastler.jpg"
      }
    },
    {
      "type": "Feature",
      "geometry": {
        "type": "Point",
        "coordinates": [8.4743,49.15853]
      },
      "properties": {
        "name": "Graben_Neudorf",
        "label": "Graben-Neudorf",
        "popup_hz": "Bestandesvitalität",
        "popup_massnahmen": [
          [
            "https://www.fva-bw.de/fileadmin/user_upload/Abteilungen/Boden_und_Umwelt/Wasserrueckhalt_Wald/PDF404.pdf",
            "Rückbau von Entwässerungsgräben auf organischen Böden"
          ],
          [
            "https://www.fva-bw.de/fileadmin/user_upload/Abteilungen/Boden_und_Umwelt/Wasserrueckhalt_Wald/PDF404.pdf",
            "Rückbau von Entwässerungsgräben auf mineralischen Böden"
          ]
        ],
        "popup_img": "https://www.fva-bw.de/fileadmin/user_upload/Abteilungen/Boden_und_Umwelt/Wasserrueckhalt_Wald/bilder/GrabenNeudorf.jpg"
      }
    },
    {
      "type": "Feature",
      "geometry": {
        "type": "Point",
        "coordinates": [8.93463,48.46959]
      },
      "properties": {
        "name": "Rottenburg_am_Neckar",
        "label": "Rottenburg am Neckar",
        "popup_hz": "Erosionsschutz",
        "popup_massnahmen": [
          [
            "https://www.fva-bw.de/fileadmin/publikationen/faltblaetter/FOR_25_008_Steckbrief_Versickerungsmulden.pdf",
            "Versickerungs-/Verdunstungsmulden"
          ],
          [
            "https://www.fva-bw.de/fileadmin/publikationen/faltblaetter/FOR_25_008_Steckbrief_Furten_Okt25.pdf",
            "Ersetzen von Dolen durch Furten"
          ],
          [
            "https://www.fva-bw.de/fileadmin/publikationen/faltblaetter/FOR_25_008_Steckbrief_Kleinrueckhalte_Okt25.pdf",
            "Retentionsflächen/Kleinrückhalte"
          ]
        ],
        "popup_img": "https://www.fva-bw.de/fileadmin/user_upload/Abteilungen/Boden_und_Umwelt/Wasserrueckhalt_Wald/bilder/RottenburgWaldstrasse.jpg"
      }
    },
    {
      "type": "Feature",
      "geometry": {
        "type": "Point",
        "coordinates": [8.99824,48.23695]
      },
      "properties": {
        "name": "Albstadt",
        "label": "Albstadt",
        "popup_hz": "Hochwasserschutz",
        "popup_massnahmen": [
          [
            "https://www.fva-bw.de/fileadmin/publikationen/faltblaetter/FOR_25_008_Steckbrief_Versickerungsmulden.pdf",
            "Versickerungs-/Verdunstungsmulden"
          ],
          [
            "https://www.fva-bw.de/fileadmin/user_upload/Abteilungen/Boden_und_Umwelt/Wasserrueckhalt_Wald/PDF404.pdf",
            "Aktive Regeneration von Rückegassen"
          ]
        ],
        "popup_img": "https://www.fva-bw.de/fileadmin/user_upload/Abteilungen/Boden_und_Umwelt/Wasserrueckhalt_Wald/bilder/AlbstadtLaufen.jpg"
      }
    },
    {
      "type": "Feature",
      "geometry": {
        "type": "Point",
        "coordinates": [9.09679,48.99466]
      },
      "properties": {
        "name": "Löchgau",
        "label": "Löchgau",
        "popup_hz": "Ökologie/Feuchthabitate",
        "popup_massnahmen": [
          [
            "https://www.fva-bw.de/fileadmin/user_upload/Abteilungen/Boden_und_Umwelt/Wasserrueckhalt_Wald/PDF404.pdf",
            "Rückbau von Entwässerungsgräben auf mineralischen Bödenböden"
          ],
          [
            "https://www.fva-bw.de/fileadmin/user_upload/Abteilungen/Boden_und_Umwelt/Wasserrueckhalt_Wald/PDF404.pdf",
            "Schaffung und Erhalt von Stillgewässern"
          ]
        ],
        "popup_img": "https://www.fva-bw.de/fileadmin/user_upload/Abteilungen/Boden_und_Umwelt/Wasserrueckhalt_Wald/bilder/Loechgau.jpg"
      }
    },
    {
      "type": "Feature",
      "geometry": {
        "type": "Point",
        "coordinates": [7.80509,47.98679]
      },
      "properties": {
        "name": "Freiburg_im_Breisgau",
        "label": "Freiburg im Breisgau",
        "popup_hz": "Grundwasserneubildung",
        "popup_massnahmen": [
          [
            "https://www.fva-bw.de/fileadmin/user_upload/Abteilungen/Boden_und_Umwelt/Wasserrueckhalt_Wald/PDF404.pdf",
            "Flutung benachbarter Waldbestände"
          ]
        ],
        "popup_img": "https://www.fva-bw.de/fileadmin/user_upload/Abteilungen/Boden_und_Umwelt/Wasserrueckhalt_Wald/bilder/FreiburgMooswald.jpg"
      }
    },
    {
      "type": "Feature",
      "geometry": {
        "type": "Point",
        "coordinates": [8.71982,48.87444]
      },
      "properties": {
        "name": "Pforzheim_1",
        "label": "Pforzheim",
        "popup_hz": "Ökologie/Feuchthabitate",
        "popup_massnahmen": [
          [
            "https://www.fva-bw.de/fileadmin/user_upload/Abteilungen/Boden_und_Umwelt/Wasserrueckhalt_Wald/PDF404.pdf",
            "Schaffung und Erhalt von Stillgewässern"
          ]
        ],
        "popup_img": "https://www.fva-bw.de/fileadmin/user_upload/Abteilungen/Boden_und_Umwelt/Wasserrueckhalt_Wald/bilder/PforzheimFoersterWeber.jpg"
      }
    },
    {
      "type": "Feature",
      "geometry": {
        "type": "Point",
        "coordinates": [8.70696,47.94358]
      },
      "properties": {
        "name": "Immendingen",
        "label": "Immendingen",
        "popup_hz": "Erosionsschutz",
        "popup_massnahmen": [
          [
            "https://www.fva-bw.de/fileadmin/publikationen/faltblaetter/FOR_25_008_Steckbrief_Versickerungsmulden.pdf",
            "Versickerungs-/Verdunstungsmulden"
          ],
          [
            "https://www.fva-bw.de/fileadmin/user_upload/Abteilungen/Boden_und_Umwelt/Wasserrueckhalt_Wald/PDF404.pdf",
            "Hydrologisch optimierte Lage von Querabschlägen"
          ]
        ],
        "popup_img": "https://www.fva-bw.de/fileadmin/user_upload/Abteilungen/Boden_und_Umwelt/Wasserrueckhalt_Wald/bilder/ImmendingenZimmern.jpg"
      }
    },
    {
      "type": "Feature",
      "geometry": {
        "type": "Point",
        "coordinates": [9.01702,47.91244]
      },
      "properties": {
        "name": "Mühlingen",
        "label": "Mühlingen",
        "popup_hz": "Ökologie/Feuchthabitate",
        "popup_massnahmen": [
          [
            "https://www.fva-bw.de/fileadmin/user_upload/Abteilungen/Boden_und_Umwelt/Wasserrueckhalt_Wald/PDF404.pdf",
            "Rückbau von Entwässerungsgräben auf mineralischen Böden"
          ]
        ],
        "popup_img": "https://www.fva-bw.de/fileadmin/user_upload/Abteilungen/Boden_und_Umwelt/Wasserrueckhalt_Wald/bilder/Muehlingen.jpg"
      }
    },
    {
      "type": "Feature",
      "geometry": {
        "type": "Point",
        "coordinates": [8.14143,48.82095]
      },
      "properties": {
        "name": "Iffezheim",
        "label": "Iffezheim",
        "popup_hz": "Ökologie/Feuchthabitate",
        "popup_massnahmen": [
          [
            "https://www.fva-bw.de/fileadmin/user_upload/Abteilungen/Boden_und_Umwelt/Wasserrueckhalt_Wald/PDF404.pdf",
            "Schaffung und Erhalt von Stillgewässern"
          ],
          [
            "https://www.fva-bw.de/fileadmin/user_upload/Abteilungen/Boden_und_Umwelt/Wasserrueckhalt_Wald/PDF404.pdf",
            "Flutung benachbarter Waldbestände"
          ]
        ],
        "popup_img": "https://www.fva-bw.de/fileadmin/user_upload/Abteilungen/Boden_und_Umwelt/Wasserrueckhalt_Wald/bilder/Iffezheim.jpg"
      }
    },
    {
      "type": "Feature",
      "geometry": {
        "type": "Point",
        "coordinates": [9.22373,48.4543]
      },
      "properties": {
        "name": "Pfullingen",
        "label": "Pfullingen",
        "popup_hz": "Bestandesvitalität",
        "popup_massnahmen": [
          [
            "https://www.fva-bw.de/fileadmin/user_upload/Abteilungen/Boden_und_Umwelt/Wasserrueckhalt_Wald/PDF404.pdf",
            "Verzicht auf bergseitige Wegeseitengräben"
          ],
          [
            "https://www.fva-bw.de/fileadmin/user_upload/Abteilungen/Boden_und_Umwelt/Wasserrueckhalt_Wald/PDF404.pdf",
            "Hydrologisch optimierte Lage von Querabschlägen"
          ],
          [
            "https://www.fva-bw.de/fileadmin/publikationen/faltblaetter/FOR_25_008_Steckbrief_Versickerungsmulden.pdf",
            "Versickerungs-/Verdunstungsmulden"
          ]
        ],
        "popup_img": "https://www.fva-bw.de/fileadmin/user_upload/Abteilungen/Boden_und_Umwelt/Wasserrueckhalt_Wald/bilder/PfullingenJaegerbergweg.jpg"
      }
    },
    {
      "type": "Feature",
      "geometry": {
        "type": "Point",
        "coordinates": [9.67023,48.38703]
      },
      "properties": {
        "name": "Schelklingen",
        "label": "Schelklingen",
        "popup_hz": "Erosionsschutz",
        "popup_massnahmen": [
          [
            "https://www.fva-bw.de/fileadmin/user_upload/Abteilungen/Boden_und_Umwelt/Wasserrueckhalt_Wald/PDF404.pdf",
            "Hydrologisch optimierte Lage von Querabschlägen"
          ],
          [
            "https://www.fva-bw.de/fileadmin/publikationen/faltblaetter/FOR_25_008_Steckbrief_Versickerungsmulden.pdf",
            "Versickerungs-/Verdunstungsmulden"
          ],
          [
            "https://www.fva-bw.de/fileadmin/user_upload/Abteilungen/Boden_und_Umwelt/Wasserrueckhalt_Wald/PDF404.pdf",
            "Verzicht auf bergseitige Wegeseitengräben"
          ]
        ],
        "popup_img": "https://www.fva-bw.de/fileadmin/user_upload/Abteilungen/Boden_und_Umwelt/Wasserrueckhalt_Wald/bilder/SchelklingenSostenhauserWald.jpg"
      }
    },
    {
      "type": "Feature",
      "geometry": {
        "type": "Point",
        "coordinates": [9.39812,47.71704]
      },
      "properties": {
        "name": "Markdorf",
        "label": "Markdorf",
        "popup_hz": "Hochwasserschutz",
        "popup_massnahmen": [
          [
            "https://www.fva-bw.de/fileadmin/publikationen/faltblaetter/FOR_25_008_Steckbrief_Versickerungsmulden.pdf",
            "Versickerungs-/Verdunstungsmulden"
          ],
          [
            "https://www.fva-bw.de/fileadmin/publikationen/faltblaetter/FOR_25_008_Steckbrief_Kleinrueckhalte_Okt25.pdf",
            "Retentionsflächen/Kleinrückhalte"
          ]
        ],
        "popup_img": "https://www.fva-bw.de/fileadmin/user_upload/Abteilungen/Boden_und_Umwelt/Wasserrueckhalt_Wald/bilder/MarkdorfGehrenberg.jpg"
      }
    },
    {
      "type": "Feature",
      "geometry": {
        "type": "Point",
        "coordinates": [8.88862,49.1348]
      },
      "properties": {
        "name": "Eppingen",
        "label": "Eppingen",
        "popup_hz": "Ökologie/Feuchthabitate",
        "popup_massnahmen": [
          [
            "https://www.fva-bw.de/fileadmin/publikationen/faltblaetter/FOR_25_008_Steckbrief_Furten_Okt25.pdf",
            "Ersetzen von Dolen durch Furten"
          ]
        ],
        "popup_img": "https://www.fva-bw.de/fileadmin/user_upload/Abteilungen/Boden_und_Umwelt/Wasserrueckhalt_Wald/bilder/Eppingen.jpg"
      }
    },
    {
      "type": "Feature",
      "geometry": {
        "type": "Point",
        "coordinates": [9.55285,48.605]
      },
      "properties": {
        "name": "Weilheim_an_der_Teck",
        "label": "Weilheim an der Teck",
        "popup_hz": "Erosionsschutz",
        "popup_massnahmen": [
          [
            "https://www.fva-bw.de/fileadmin/user_upload/Abteilungen/Boden_und_Umwelt/Wasserrueckhalt_Wald/PDF404.pdf",
            "Verzicht auf bergseitige Wegeseitengräben"
          ],
          [
            "https://www.fva-bw.de/fileadmin/user_upload/Abteilungen/Boden_und_Umwelt/Wasserrueckhalt_Wald/PDF404.pdf",
            "Wasserableitung aus Rückegassen"
          ],
          [
            "https://www.fva-bw.de/fileadmin/user_upload/Abteilungen/Boden_und_Umwelt/Wasserrueckhalt_Wald/PDF404.pdf",
            "Schaffung und Erhalt von Stillgewässern"
          ],
          [
            "https://www.fva-bw.de/fileadmin/publikationen/faltblaetter/Steckbrief_Rigole_final.pdf",
            "Ersetzen von Dolen durch Rigolen"
          ]
        ],
        "popup_img": "https://www.fva-bw.de/fileadmin/user_upload/Abteilungen/Boden_und_Umwelt/Wasserrueckhalt_Wald/bilder/WeilheimTeck.jpg"
      }
    },
    {
      "type": "Feature",
      "geometry": {
        "type": "Point",
        "coordinates": [8.40961,49.01536]
      },
      "properties": {
        "name": "Karlsruhe_1",
        "label": "Karlsruhe",
        "popup_hz": "Bestandesvitalität",
        "popup_massnahmen": [
          [
            "https://www.fva-bw.de/fileadmin/publikationen/faltblaetter/FOR_25_008_Steckbrief_Versickerungsmulden.pdf",
            "Versickerungs-/Verdunstungsmulden"
          ],
          [
            "https://www.fva-bw.de/fileadmin/user_upload/Abteilungen/Boden_und_Umwelt/Wasserrueckhalt_Wald/PDF404.pdf",
            "Schaffung und Erhalt von Stillgewässern"
          ],
          [
            "https://www.fva-bw.de/fileadmin/user_upload/Abteilungen/Boden_und_Umwelt/Wasserrueckhalt_Wald/PDF404.pdf",
            "Hydrologisch optimierte Lage von Querabschlägen"
          ]
        ],
        "popup_img": "https://www.fva-bw.de/fileadmin/user_upload/Abteilungen/Boden_und_Umwelt/Wasserrueckhalt_Wald/bilder/KarlsruheStadtBruchwald.jpg"
      }
    },
    {
      "type": "Feature",
      "geometry": {
        "type": "Point",
        "coordinates": [8.4836,48.05345]
      },
      "properties": {
        "name": "Villingen_Schwenningen",
        "label": "Villingen-Schwenningen",
        "popup_hz": "Ökologie/Feuchthabitate",
        "popup_massnahmen": [
          [
            "https://www.fva-bw.de/fileadmin/user_upload/Abteilungen/Boden_und_Umwelt/Wasserrueckhalt_Wald/PDF404.pdf",
            "Schaffung und Erhalt von Stillgewässern"
          ]
        ],
        "popup_img": "https://www.fva-bw.de/fileadmin/user_upload/Abteilungen/Boden_und_Umwelt/Wasserrueckhalt_Wald/bilder/VillingenSchwenningen.jpg"
      }
    },
    {
      "type": "Feature",
      "geometry": {
        "type": "Point",
        "coordinates": [7.79346,47.74854]
      },
      "properties": {
        "name": "Kleines_Wiesental",
        "label": "Kleines Wiesental",
        "popup_hz": "Grundwasserneubildung",
        "popup_massnahmen": [
          [
            "https://www.fva-bw.de/fileadmin/publikationen/faltblaetter/FOR_25_008_Steckbrief_Kleinrueckhalte_Okt25.pdf",
            "Retentionsflächen/Kleinrückhalte"
          ],
          [
            "https://www.fva-bw.de/fileadmin/publikationen/faltblaetter/Steckbrief_Rigole_final.pdf",
            "Ersetzen von Dolen durch Rigolen"
          ],
          [
            "https://www.fva-bw.de/fileadmin/publikationen/faltblaetter/FOR_25_008_Steckbrief_Kleinrueckhalte_Okt25.pdf",
            "Retentionsflächen/Kleinrückhalte"
          ]
        ],
        "popup_img": "https://www.fva-bw.de/fileadmin/user_upload/Abteilungen/Boden_und_Umwelt/Wasserrueckhalt_Wald/bilder/KleinesWiesental.jpg"
      }
    }
  ]
}
